GSAT0101 (PRN E11)      
1 37846U 11060A   21340.26454464 -.00000083  00000+0  00000+0 0  9991
2 37846  56.9188  26.5952 0001941 311.9751  48.0725  1.70474905 63055
GSAT0102 (PRN E12)      
1 37847U 11060B   21341.35806014 -.00000087  00000+0  00000+0 0  9999
2 37847  56.9198  26.5650 0003968 297.3588  60.2433  1.70475194 62948
GSAT0103 (PRN E19)      
1 38857U 12055A   21340.30503185  .00000064  00000+0  00000+0 0  9997
2 38857  55.0860 147.0105 0001667 224.8808 135.0921  1.70473621 56819
GSAT0104 (PRN E20)      
1 38858U 12055B   21339.68888158  .00000067  00000+0  00000+0 0  9996
2 38858  55.0860 147.0290 0001661 128.7866 231.2180  1.70473907 56807
GSAT0201 (PRN E18)      
1 40128U 14050A   21340.78640195 -.00000092  00000+0  00000+0 0  9995
2 40128  50.3961 339.9586 1635253 117.3289 260.2967  1.85519278 47649
GSAT0202 (PRN E14)      
1 40129U 14050B   21341.04812323 -.00000092  00000+0  00000+0 0  9990
2 40129  50.4241 339.0031 1632279 118.1424 259.3468  1.85519798 49816
GSAT0203 (PRN E26)      
1 40544U 15017A   21340.63277420 -.00000085  00000+0  00000+0 0  9994
2 40544  56.7138  26.6447 0005048 249.2423 110.7664  1.70475860 41010
GSAT0204 (PRN E22)      
1 40545U 15017B   21340.88520570 -.00000086  00000+0  00000+0 0  9990
2 40545  56.7196  26.6495 0004778 237.3278 122.6881  1.70475592  4062
GSAT0205 (PRN E24)      
1 40889U 15045A   21340.65256647 -.00000018  00000+0  00000+0 0  9993
2 40889  55.7540 267.2895 0005606   2.6933 357.3356  1.70474505 38822
GSAT0206 (PRN E30)      
1 40890U 15045B   21340.87245853 -.00000019  00000+0  00000+0 0  9997
2 40890  55.7532 267.2795 0004115 350.3327   9.6860  1.70472702 38855
GSAT0209 (PRN E09)      
1 41174U 15079A   21340.46156167  .00000063  00000+0  00000+0 0  9992
2 41174  55.1021 146.7083 0002062 343.7973  16.1811  1.70473211 36584
GSAT0208 (PRN E08)      
1 41175U 15079B   21340.68121864  .00000062  00000+0  00000+0 0  9992
2 41175  55.1010 146.7011 0001478   0.7771 359.2074  1.70473200 37008
GSAT0211 (PRN E02)      
1 41549U 16030A   21340.80083733 -.00000019  00000+0  00000+0 0  9994
2 41549  55.8982 267.1941 0005080 328.5671  31.4291  1.70474248 34483
GSAT0210 (PRN E01)      
1 41550U 16030B   21339.92037906 -.00000016  00000+0  00000+0 0  9995
2 41550  55.8983 267.2198 0004137 304.7629  55.2209  1.70474264 34461
GSAT0207 (PRN E07)      
1 41859U 16069A   21339.58089306  .00000067  00000+0  00000+0 0  9997
2 41859  54.7612 146.9618 0001612 312.7327  47.2441  1.70473144 31191
GSAT0212 (PRN E03)      
1 41860U 16069B   21340.60748106  .00000062  00000+0  00000+0 0  9999
2 41860  54.7591 146.9312 0001759  23.7870 336.2061  1.70473195 31469
GSAT0213 (PRN E04)      
1 41861U 16069C   21340.97297491  .00000061  00000+0  00000+0 0  9995
2 41861  54.7618 146.9258 0001402 245.2347 114.7346  1.70473280 31330
GSAT0214 (PRN E05)      
1 41862U 16069D   21341.12009227  .00000061  00000+0  00000+0 0  9992
2 41862  54.7605 146.9165 0000550 228.3271 131.6517  1.70473284 31461
GSAT0215 (PRN E21)      
1 43055U 17079A   21339.26425221 -.00000015  00000+0  00000+0 0  9998
2 43055  55.8746 267.0718 0003450 303.8122  56.1745  1.70473457 24772
GSAT0216 (PRN E25)      
1 43056U 17079B   21340.72980611 -.00000018  00000+0  00000+0 0  9994
2 43056  55.8739 267.0314 0005074 296.5168  63.4579  1.70473615 24816
GSAT0217 (PRN E27)      
1 43057U 17079C   21340.94999176 -.00000019  00000+0  00000+0 0  9996
2 43057  55.8721 267.0250 0004944 308.5045  51.4786  1.70473574 24800
GSAT0218 (PRN E31)      
1 43058U 17079D   21340.58341674 -.00000018  00000+0  00000+0 0  9990
2 43058  55.8722 267.0326 0005391 291.5256  68.4432  1.70473590 24790
GSAT0221 (PRN E15)      
1 43564U 18060A   21340.48172322 -.00000083  00000+0  00000+0 0  9996
2 43564  57.0969  26.4152 0005300 264.3376  95.6656  1.70475934 20985
GSAT0222 (PRN E33)      
1 43565U 18060B   21341.28813888 -.00000087  00000+0  00000+0 0  9999
2 43565  57.0995  26.3934 0004851 270.4392  89.5665  1.70475957 21032
GSAT0219 (PRN E36)      
1 43566U 18060C   21340.92213874 -.00000085  00000+0  00000+0 0  9997
2 43566  57.0999  26.4053 0004507 270.0021  90.0087  1.70475936 21002
GSAT0220 (PRN E13)      
1 43567U 18060D   21339.96895302 -.00000081  00000+0  00000+0 0  9998
2 43567  57.0990  26.4313 0004635 265.3780  94.6342  1.70475629 20972
GSAT0223                
1 49809U 21117A   21340.56495259 -.00000085  00000+0  00000+0 0  9999
2 49809  57.0968  26.3056 0011206 234.7370 125.2147  1.67576153    20
GSAT0224                
1 49810U 21117B   21340.56478730 -.00000085  00000+0  00000+0 0  9996
2 49810  57.0869  26.3281 0011996 200.3179 160.5812  1.67811374    22
